[{"OBJECT_NAME":"METEOSAT-11 (MSG-4)","OBJECT_ID":"2015-034A","EPOCH":"2026-03-03T08:59:11.736960","MEAN_MOTION":1.00265776,"ECCENTRICITY":0.00018,"INCLINATION":2.9349,"RA_OF_ASC_NODE":71.6876,"ARG_OF_PERICENTER":270.5831,"MEAN_ANOMALY":323.0823,"EPHEMERIS_TYPE":0,"CLASSIFICATION_TYPE":"U","NORAD_CAT_ID":40732,"ELEMENT_SET_NO":999,"REV_AT_EPOCH":615,"BSTAR":0,"MEAN_MOTION_DOT":4.8e-7,"MEAN_MOTION_DDOT":0},{"OBJECT_NAME":"ELEKTRO-L 2","OBJECT_ID":"2015-074A","EPOCH":"2026-03-03T08:52:19.895808","MEAN_MOTION":1.00270696,"ECCENTRICITY":0.0003463,"INCLINATION":6.4281,"RA_OF_ASC_NODE":71.8243,"ARG_OF_PERICENTER":236.0875,"MEAN_ANOMALY":331.7967,"EPHEMERIS_TYPE":0,"CLASSIFICATION_TYPE":"U","NORAD_CAT_ID":41105,"ELEMENT_SET_NO":999,"REV_AT_EPOCH":3744,"BSTAR":0,"MEAN_MOTION_DOT":-1.29e-6,"MEAN_MOTION_DDOT":0},{"OBJECT_NAME":"INSAT-3DR","OBJECT_ID":"2016-054A","EPOCH":"2026-03-03T12:21:36.401760","MEAN_MOTION":1.00272313,"ECCENTRICITY":0.0013308,"INCLINATION":0.0447,"RA_OF_ASC_NODE":97.1419,"ARG_OF_PERICENTER":184.5751,"MEAN_ANOMALY":138.9352,"EPHEMERIS_TYPE":0,"CLASSIFICATION_TYPE":"U","NORAD_CAT_ID":41752,"ELEMENT_SET_NO":999,"REV_AT_EPOCH":3475,"BSTAR":0,"MEAN_MOTION_DOT":-9.1e-7,"MEAN_MOTION_DDOT":0},{"OBJECT_NAME":"HIMAWARI-9","OBJECT_ID":"2016-064A","EPOCH":"2026-03-03T11:19:19.613856","MEAN_MOTION":1.0027252,"ECCENTRICITY":0.0001152,"INCLINATION":0.016,"RA_OF_ASC_NODE":185.6699,"ARG_OF_PERICENTER":178.216,"MEAN_ANOMALY":107.9503,"EPHEMERIS_TYPE":0,"CLASSIFICATION_TYPE":"U","NORAD_CAT_ID":41836,"ELEMENT_SET_NO":999,"REV_AT_EPOCH":3415,"BSTAR":0,"MEAN_MOTION_DOT":-2.89e-6,"MEAN_MOTION_DDOT":0},{"OBJECT_NAME":"GOES 16","OBJECT_ID":"2016-071A","EPOCH":"2026-03-03T10:04:38.599680","MEAN_MOTION":1.00271658,"ECCENTRICITY":0.0002581,"INCLINATION":0.1448,"RA_OF_ASC_NODE":90.2078,"ARG_OF_PERICENTER":216.6181,"MEAN_ANOMALY":260.8121,"EPHEMERIS_TYPE":0,"CLASSIFICATION_TYPE":"U","NORAD_CAT_ID":41866,"ELEMENT_SET_NO":999,"REV_AT_EPOCH":3404,"BSTAR":0,"MEAN_MOTION_DOT":-1.06e-6,"MEAN_MOTION_DDOT":0},{"OBJECT_NAME":"FENGYUN 4A","OBJECT_ID":"2016-077A","EPOCH":"2026-03-03T13:36:50.368032","MEAN_MOTION":1.00279593,"ECCENTRICITY":0.0007502,"INCLINATION":2.0537,"RA_OF_ASC_NODE":81.4231,"ARG_OF_PERICENTER":136.0731,"MEAN_ANOMALY":271.5797,"EPHEMERIS_TYPE":0,"CLASSIFICATION_TYPE":"U","NORAD_CAT_ID":41882,"ELEMENT_SET_NO":999,"REV_AT_EPOCH":3387,"BSTAR":0,"MEAN_MOTION_DOT":-3.7e-6,"MEAN_MOTION_DDOT":0},{"OBJECT_NAME":"CYGFM05","OBJECT_ID":"2016-078A","EPOCH":"2026-03-03T12:36:20.760192","MEAN_MOTION":15.51803206,"ECCENTRICITY":0.0006991,"INCLINATION":34.9565,"RA_OF_ASC_NODE":237.8182,"ARG_OF_PERICENTER":232.6535,"MEAN_ANOMALY":127.3551,"EPHEMERIS_TYPE":0,"CLASSIFICATION_TYPE":"U","NORAD_CAT_ID":41884,"ELEMENT_SET_NO":999,"REV_AT_EPOCH":51230,"BSTAR":0.00045672,"MEAN_MOTION_DOT":0.00028239,"MEAN_MOTION_DDOT":0},{"OBJECT_NAME":"CYGFM04","OBJECT_ID":"2016-078B","EPOCH":"2026-03-03T11:01:49.720800","MEAN_MOTION":15.55180714,"ECCENTRICITY":0.0006125,"INCLINATION":34.9322,"RA_OF_ASC_NODE":210.5429,"ARG_OF_PERICENTER":265.4509,"MEAN_ANOMALY":94.5515,"EPHEMERIS_TYPE":0,"CLASSIFICATION_TYPE":"U","NORAD_CAT_ID":41885,"ELEMENT_SET_NO":999,"REV_AT_EPOCH":51249,"BSTAR":0.00047611,"MEAN_MOTION_DOT":0.00033317,"MEAN_MOTION_DDOT":0},{"OBJECT_NAME":"CYGFM02","OBJECT_ID":"2016-078C","EPOCH":"2026-03-03T10:24:48.007872","MEAN_MOTION":15.57234393,"ECCENTRICITY":0.000712,"INCLINATION":34.941,"RA_OF_ASC_NODE":207.7476,"ARG_OF_PERICENTER":265.9178,"MEAN_ANOMALY":94.0733,"EPHEMERIS_TYPE":0,"CLASSIFICATION_TYPE":"U","NORAD_CAT_ID":41886,"ELEMENT_SET_NO":999,"REV_AT_EPOCH":51263,"BSTAR":0.00082232,"MEAN_MOTION_DOT":0.000624,"MEAN_MOTION_DDOT":0},{"OBJECT_NAME":"CYGFM01","OBJECT_ID":"2016-078D","EPOCH":"2026-03-03T11:45:23.441760","MEAN_MOTION":15.52239327,"ECCENTRICITY":0.0006583,"INCLINATION":34.9392,"RA_OF_ASC_NODE":239.8719,"ARG_OF_PERICENTER":223.9548,"MEAN_ANOMALY":136.0652,"EPHEMERIS_TYPE":0,"CLASSIFICATION_TYPE":"U","NORAD_CAT_ID":41887,"ELEMENT_SET_NO":999,"REV_AT_EPOCH":51224,"BSTAR":0.00052141,"MEAN_MOTION_DOT":0.00032773,"MEAN_MOTION_DDOT":0},{"OBJECT_NAME":"CYGFM08","OBJECT_ID":"2016-078E","EPOCH":"2026-03-03T11:25:15.514464","MEAN_MOTION":15.53711043,"ECCENTRICITY":0.0008153,"INCLINATION":34.9429,"RA_OF_ASC_NODE":221.9068,"ARG_OF_PERICENTER":249.2003,"MEAN_ANOMALY":110.7846,"EPHEMERIS_TYPE":0,"CLASSIFICATION_TYPE":"U","NORAD_CAT_ID":41888,"ELEMENT_SET_NO":999,"REV_AT_EPOCH":51248,"BSTAR":0.00047329,"MEAN_MOTION_DOT":0.00031389,"MEAN_MOTION_DDOT":0},{"OBJECT_NAME":"CYGFM07","OBJECT_ID":"2016-078G","EPOCH":"2026-03-03T12:13:34.743360","MEAN_MOTION":15.54402182,"ECCENTRICITY":0.0006698,"INCLINATION":34.9449,"RA_OF_ASC_NODE":210.172,"ARG_OF_PERICENTER":269.3372,"MEAN_ANOMALY":90.6584,"EPHEMERIS_TYPE":0,"CLASSIFICATION_TYPE":"U","NORAD_CAT_ID":41890,"ELEMENT_SET_NO":999,"REV_AT_EPOCH":51251,"BSTAR":0.00047197,"MEAN_MOTION_DOT":0.00032091,"MEAN_MOTION_DDOT":0},{"OBJECT_NAME":"CYGFM03","OBJECT_ID":"2016-078H","EPOCH":"2026-03-03T11:31:59.284992","MEAN_MOTION":15.54417038,"ECCENTRICITY":0.0005858,"INCLINATION":34.9403,"RA_OF_ASC_NODE":212.3431,"ARG_OF_PERICENTER":255.0258,"MEAN_ANOMALY":104.9817,"EPHEMERIS_TYPE":0,"CLASSIFICATION_TYPE":"U","NORAD_CAT_ID":41891,"ELEMENT_SET_NO":999,"REV_AT_EPOCH":51248,"BSTAR":0.00047249,"MEAN_MOTION_DOT":0.00032137,"MEAN_MOTION_DDOT":0},{"OBJECT_NAME":"FENGYUN 3D","OBJECT_ID":"2017-072A","EPOCH":"2026-03-03T12:06:49.180896","MEAN_MOTION":14.19711772,"ECCENTRICITY":0.0001897,"INCLINATION":99.0013,"RA_OF_ASC_NODE":35.0788,"ARG_OF_PERICENTER":25.8017,"MEAN_ANOMALY":334.3253,"EPHEMERIS_TYPE":0,"CLASSIFICATION_TYPE":"U","NORAD_CAT_ID":43010,"ELEMENT_SET_NO":999,"REV_AT_EPOCH":42999,"BSTAR":-6.3211e-5,"MEAN_MOTION_DOT":-1.8e-6,"MEAN_MOTION_DDOT":0},{"OBJECT_NAME":"NOAA 20 (JPSS-1)","OBJECT_ID":"2017-073A","EPOCH":"2026-03-03T09:56:30.241824","MEAN_MOTION":14.1953414,"ECCENTRICITY":9.13e-5,"INCLINATION":98.7685,"RA_OF_ASC_NODE":2.8641,"ARG_OF_PERICENTER":145.5401,"MEAN_ANOMALY":214.5834,"EPHEMERIS_TYPE":0,"CLASSIFICATION_TYPE":"U","NORAD_CAT_ID":43013,"ELEMENT_SET_NO":999,"REV_AT_EPOCH":42946,"BSTAR":6.8391e-5,"MEAN_MOTION_DOT":1.0e-6,"MEAN_MOTION_DDOT":0},{"OBJECT_NAME":"GOES 17","OBJECT_ID":"2018-022A","EPOCH":"2026-03-03T09:48:38.740608","MEAN_MOTION":1.0027043,"ECCENTRICITY":0.0002305,"INCLINATION":0.6656,"RA_OF_ASC_NODE":87.5764,"ARG_OF_PERICENTER":219.9995,"MEAN_ANOMALY":271.251,"EPHEMERIS_TYPE":0,"CLASSIFICATION_TYPE":"U","NORAD_CAT_ID":43226,"ELEMENT_SET_NO":999,"REV_AT_EPOCH":2936,"BSTAR":0,"MEAN_MOTION_DOT":-1.97e-6,"MEAN_MOTION_DDOT":0},{"OBJECT_NAME":"FENGYUN 2H","OBJECT_ID":"2018-050A","EPOCH":"2026-03-03T13:46:14.472768","MEAN_MOTION":1.00272591,"ECCENTRICITY":0.0001973,"INCLINATION":2.7584,"RA_OF_ASC_NODE":80.3655,"ARG_OF_PERICENTER":174.272,"MEAN_ANOMALY":192.318,"EPHEMERIS_TYPE":0,"CLASSIFICATION_TYPE":"U","NORAD_CAT_ID":43491,"ELEMENT_SET_NO":999,"REV_AT_EPOCH":2838,"BSTAR":0,"MEAN_MOTION_DOT":-1.4e-6,"MEAN_MOTION_DDOT":0}]
