METEOSAT-11 (MSG-4)     
1 40732U 15034A   26062.37444140  .00000048  00000+0  00000+0 0  9992
2 40732   2.9349  71.6876 0001800 270.5831 323.0823  1.00265776  6152
ELEKTRO-L 2             
1 41105U 15074A   26062.36967472 -.00000129  00000+0  00000+0 0  9999
2 41105   6.4281  71.8243 0003463 236.0875 331.7967  1.00270696 37441
INSAT-3DR               
1 41752U 16054A   26062.51500465 -.00000091  00000+0  00000+0 0  9996
2 41752   0.0447  97.1419 0013308 184.5751 138.9352  1.00272313 34752
HIMAWARI-9              
1 41836U 16064A   26062.47175479 -.00000289  00000+0  00000+0 0  9997
2 41836   0.0160 185.6699 0001152 178.2160 107.9503  1.00272520 34156
GOES 16                 
1 41866U 16071A   26062.41989120 -.00000106  00000+0  00000+0 0  9996
2 41866   0.1448  90.2078 0002581 216.6181 260.8121  1.00271658 34042
FENGYUN 4A              
1 41882U 16077A   26062.56724963 -.00000370  00000+0  00000+0 0  9991
2 41882   2.0537  81.4231 0007502 136.0731 271.5797  1.00279593 33871
CYGFM05                 
1 41884U 16078A   26062.52524028  .00028239  00000+0  45672-3 0  9991
2 41884  34.9565 237.8182 0006991 232.6535 127.3551 15.51803206512307
CYGFM04                 
1 41885U 16078B   26062.45960325  .00033317  00000+0  47611-3 0  9996
2 41885  34.9322 210.5429 0006125 265.4509  94.5515 15.55180714512496
CYGFM02                 
1 41886U 16078C   26062.43388898  .00062400  00000+0  82232-3 0  9997
2 41886  34.9410 207.7476 0007120 265.9178  94.0733 15.57234393512636
CYGFM01                 
1 41887U 16078D   26062.48985465  .00032773  00000+0  52141-3 0  9992
2 41887  34.9392 239.8719 0006583 223.9548 136.0652 15.52239327512240
CYGFM08                 
1 41888U 16078E   26062.47587401  .00031389  00000+0  47329-3 0  9994
2 41888  34.9429 221.9068 0008153 249.2003 110.7846 15.53711043512484
CYGFM07                 
1 41890U 16078G   26062.50942990  .00032091  00000+0  47197-3 0  9993
2 41890  34.9449 210.1720 0006698 269.3372  90.6584 15.54402182512519
CYGFM03                 
1 41891U 16078H   26062.48054728  .00032137  00000+0  47249-3 0  9993
2 41891  34.9403 212.3431 0005858 255.0258 104.9817 15.54417038512485
FENGYUN 3D              
1 43010U 17072A   26062.50473589 -.00000180  00000+0 -63211-4 0  9999
2 43010  99.0013  35.0788 0001897  25.8017 334.3253 14.19711772429997
NOAA 20 (JPSS-1)        
1 43013U 17073A   26062.41423891  .00000100  00000+0  68391-4 0  9998
2 43013  98.7685   2.8641 0000913 145.5401 214.5834 14.19534140429464
GOES 17                 
1 43226U 18022A   26062.40878172 -.00000197  00000+0  00000+0 0  9999
2 43226   0.6656  87.5764 0002305 219.9995 271.2510  1.00270430 29368
FENGYUN 2H              
1 43491U 18050A   26062.57377862 -.00000140  00000+0  00000+0 0  9990
2 43491   2.7584  80.3655 0001973 174.2720 192.3180  1.00272591 28381
